LEMUR-2-TARTIFLETTE     
1 66784U 25276DZ  26087.70676882  .00006238  00000+0  53139-3 0  9992
2 66784  97.5317 161.1405 0014694  54.0061 306.2521 14.98031160 18149
LEMUR-2-VUKASIN         
1 66785U 25276EA  26087.63733696  .00007388  00000+0  60847-3 0  9993
2 66785  97.5318 161.2139 0009950  53.4613 306.7525 14.99318383 18078
LEMUR-2-HOTSPUR-TOM     
1 66786U 25276EB  26087.76324129  .00007392  00000+0  62851-3 0  9997
2 66786  97.5312 161.1971 0015575  50.6490 309.6110 14.98028652 18087
LEMUR-2 FIKRETDENGIZ    
1 67363U 26004A   26087.70909372  .00006107  00000+0  67645-3 0  9991
2 67363  97.8023  87.5454 0010264  52.5160 307.6988 14.87636322 11310
LEMUR-2-CALLUM-K-J      
1 67364U 26004B   26087.70916972  .00004181  00000+0  46781-3 0  9994
2 67364  97.8065  87.5746 0009719  42.3026 317.8938 14.87403000 11326
LEMUR-2-MARIO-SOUSA     
1 67365U 26004C   26087.56716967  .00006053  00000+0  66793-3 0  9996
2 67365  97.8001  87.4051 0009865  54.1543 306.0588 14.87794386 11301
LEMUR-2-SONNENBLUME     
1 67367U 26004E   26087.56154990 -.00001167  00000+0 -12156-3 0  9997
2 67367  97.7989  87.4017 0009614  55.8540 304.3586 14.87871133 11301
LEMUR-2-WOBLER          
1 67368U 26004F   26087.56101159  .00005964  00000+0  65714-3 0  9992
2 67368  97.8051  87.4521 0009474  46.4989 313.7013 14.87868767 11308
LEMUR-2-GRAM-E-SUE      
1 67370U 26004H   26087.75635071  .00006564  00000+0  71997-3 0  9998
2 67370  97.7981  87.6011 0008671  58.2482 301.9578 14.88018978 11335
LEMUR-2-KATIE           
1 67387U 26004AA  26087.75710982  .00007027  00000+0  74508-3 0  9997
2 67387  97.8046  87.8093 0003641  30.9512 329.1919 14.89392089 11331
LEMUR-2-HCS-BAZUS       
1 67388U 26004AB  26087.75313458  .00005915  00000+0  62797-3 0  9996
2 67388  97.8035  87.8051 0002908  31.1883 328.9507 14.89408510 11330
